{"type": "FeatureCollection", "features": [ {"type": "Feature", "properties": {"norad_id": 30081, "name": "FENGYUN 1C DEB", "group": "fengyun-1c-debris", "lat": -30.47978740981753, "lon": -11.930175548642726, "alt_km": 851.3360780852117, "timestamp": "2025-12-12T11:38:31.685658+00:00", "meta": {"OBJECT_NAME": "FENGYUN 1C DEB", "OBJECT_ID": "1999-025QJ", "EPOCH": "2025-12-12T00:03:01.841760", "MEAN_MOTION": 13.98276, "ECCENTRICITY": 0.0075942, "INCLINATION": 98.9228, "RA_OF_ASC_NODE": 342.2947, "ARG_OF_PERICENTER": 341.2751, "MEAN_ANOMALY": 78.1867, "EPHEMERIS_TYPE": 0, "CLASSIFICATION_TYPE": "U", "NORAD_CAT_ID": 30081, "ELEMENT_SET_NO": 999, "REV_AT_EPOCH": 96344, "BSTAR": 0.00075588, "MEAN_MOTION_DOT": 1.062e-05, "MEAN_MOTION_DDOT": 0}, "tle": {"line1": "1 30081U 99025QJ  25346.00210465  .00001062  00000+0  75588-3 0  9999", "line2": "2 30081  98.9228 342.2947 0075942 341.2751  78.1867 13.98276000963442"}}, "geometry": {"type": "Point", "coordinates": [-11.930175548642726, -30.47978740981753]}}, {"type": "Feature", "properties": {"norad_id": 30082, "name": "FENGYUN 1C DEB", "group": "fengyun-1c-debris", "lat": 71.70336211570532, "lon": 122.18940493924768, "alt_km": 490.27459106894094, "timestamp": "2025-12-12T11:38:31.685668+00:00", "meta": {"OBJECT_NAME": "FENGYUN 1C DEB", "OBJECT_ID": "1999-025QK", "EPOCH": "2025-12-11T17:44:15.052704", "MEAN_MOTION": 15.15032428, "ECCENTRICITY": 0.00697249, "INCLINATION": 98.8177, "RA_OF_ASC_NODE": 273.325, "ARG_OF_PERICENTER": 169.6205, "MEAN_ANOMALY": 190.6482, "EPHEMERIS_TYPE": 0, "CLASSIFICATION_TYPE": "U", "NORAD_CAT_ID": 30082, "ELEMENT_SET_NO": 999, "REV_AT_EPOCH": 1278, "BSTAR": 0.0017584037, "MEAN_MOTION_DOT": 0.00034989, "MEAN_MOTION_DDOT": 0}, "tle": {"line1": "1 30082U 99025QK  25345.73906311  .00034989  00000+0  17584-2 0  9996", "line2": "2 30082  98.8177 273.3250 0069724 169.6205 190.6482 15.15032428 12783"}}, "geometry": {"type": "Point", "coordinates": [122.18940493924768, 71.70336211570532]}}, {"type": "Feature", "properties": {"norad_id": 30086, "name": "FENGYUN 1C DEB", "group": "fengyun-1c-debris", "lat": 65.59662239180541, "lon": -139.5978200197136, "alt_km": 832.6450348199369, "timestamp": "2025-12-12T11:38:31.685678+00:00", "meta": {"OBJECT_NAME": "FENGYUN 1C DEB", "OBJECT_ID": "1999-025QP", "EPOCH": "2025-12-12T00:59:13.295040", "MEAN_MOTION": 14.03826599, "ECCENTRICITY": 0.0061789, "INCLINATION": 98.9101, "RA_OF_ASC_NODE": 19.738, "ARG_OF_PERICENTER": 136.4979, "MEAN_ANOMALY": 254.0887, "EPHEMERIS_TYPE": 0, "CLASSIFICATION_TYPE": "U", "NORAD_CAT_ID": 30086, "ELEMENT_SET_NO": 999, "REV_AT_EPOCH": 96686, "BSTAR": 0.00068007, "MEAN_MOTION_DOT": 1.047e-05, "MEAN_MOTION_DDOT": 0}, "tle": {"line1": "1 30086U 99025QP  25346.04112610  .00001047  00000+0  68007-3 0  9992", "line2": "2 30086  98.9101  19.7380 0061789 136.4979 254.0887 14.03826599966861"}}, "geometry": {"type": "Point", "coordinates": [-139.5978200197136, 65.59662239180541]}}, {"type": "Feature", "properties": {"norad_id": 30087, "name": "FENGYUN 1C DEB", "group": "fengyun-1c-debris", "lat": -12.253664600539839, "lon": 20.571638790828104, "alt_km": 890.3927093113853, "timestamp": "2025-12-12T11:38:31.685688+00:00", "meta": {"OBJECT_NAME": "FENGYUN 1C DEB", "OBJECT_ID": "1999-025QQ", "EPOCH": "2025-12-12T01:55:10.735104", "MEAN_MOTION": 14.35700275, "ECCENTRICITY": 0.0230291, "INCLINATION": 98.3803, "RA_OF_ASC_NODE": 18.3429, "ARG_OF_PERICENTER": 123.3303, "MEAN_ANOMALY": 293.7302, "EPHEMERIS_TYPE": 0, "CLASSIFICATION_TYPE": "U", "NORAD_CAT_ID": 30087, "ELEMENT_SET_NO": 999, "REV_AT_EPOCH": 98686, "BSTAR": 0.00036911, "MEAN_MOTION_DOT": 1.394e-05, "MEAN_MOTION_DDOT": 0}, "tle": {"line1": "1 30087U 99025QQ  25346.07998536  .00001394  00000+0  36911-3 0  9999", "line2": "2 30087  98.3803  18.3429 0230291 123.3303 293.7302 14.35700275986867"}}, "geometry": {"type": "Point", "coordinates": [20.571638790828104, -12.253664600539839]}}, {"type": "Feature", "properties": {"norad_id": 30088, "name": "FENGYUN 1C DEB", "group": "fengyun-1c-debris", "lat": -65.9627908542658, "lon": 131.53566727415375, "alt_km": 635.7327510264213, "timestamp": "2025-12-12T11:38:31.685698+00:00", "meta": {"OBJECT_NAME": "FENGYUN 1C DEB", "OBJECT_ID": "1999-025QR", "EPOCH": "2025-12-11T23:03:50.278176", "MEAN_MOTION": 14.35907916, "ECCENTRICITY": 0.0200727, "INCLINATION": 98.3543, "RA_OF_ASC_NODE": 330.2642, "ARG_OF_PERICENTER": 249.8191, "MEAN_ANOMALY": 169.9493, "EPHEMERIS_TYPE": 0, "CLASSIFICATION_TYPE": "U", "NORAD_CAT_ID": 30088, "ELEMENT_SET_NO": 999, "REV_AT_EPOCH": 98661, "BSTAR": 0.00060057, "MEAN_MOTION_DOT": 2.141e-05, "MEAN_MOTION_DDOT": 0}, "tle": {"line1": "1 30088U 99025QR  25345.96099859  .00002141  00000+0  60057-3 0  9996", "line2": "2 30088  98.3543 330.2642 0200727 249.8191 169.9493 14.35907916986611"}}, "geometry": {"type": "Point", "coordinates": [131.53566727415375, -65.9627908542658]}}, {"type": "Feature", "properties": {"norad_id": 30089, "name": "FENGYUN 1C DEB", "group": "fengyun-1c-debris", "lat": -72.51780023379149, "lon": -78.27981180764081, "alt_km": 783.4622780102536, "timestamp": "2025-12-12T11:38:31.685708+00:00", "meta": {"OBJECT_NAME": "FENGYUN 1C DEB", "OBJECT_ID": "1999-025QS", "EPOCH": "2025-12-11T08:03:01.773216", "MEAN_MOTION": 14.30302825, "ECCENTRICITY": 0.00732451, "INCLINATION": 98.9031, "RA_OF_ASC_NODE": 250.6967, "ARG_OF_PERICENTER": 214.1301, "MEAN_ANOMALY": 273.8833, "EPHEMERIS_TYPE": 0, "CLASSIFICATION_TYPE": "U", "NORAD_CAT_ID": 30089, "ELEMENT_SET_NO": 999, "REV_AT_EPOCH": 98459, "BSTAR": 0.00039207324, "MEAN_MOTION_DOT": 1.001e-05, "MEAN_MOTION_DDOT": 0}, "tle": {"line1": "1 30089U 99025QS  25345.33543719  .00001001  00000+0  39207-3 0  9994", "line2": "2 30089  98.9031 250.6967 0073245 214.1301 273.8833 14.30302825984597"}}, "geometry": {"type": "Point", "coordinates": [-78.27981180764081, -72.51780023379149]}}, {"type": "Feature", "properties": {"norad_id": 30090, "name": "FENGYUN 1C DEB", "group": "fengyun-1c-debris", "lat": -0.3702746549528544, "lon": -20.50814331544904, "alt_km": 781.922904051602, "timestamp": "2025-12-12T11:38:31.685719+00:00", "meta": {"OBJECT_NAME": "FENGYUN 1C DEB", "OBJECT_ID": "1999-025QT", "EPOCH": "2025-12-11T23:44:46.320000", "MEAN_MOTION": 14.29027253, "ECCENTRICITY": 0.005816, "INCLINATION": 99.409, "RA_OF_ASC_NODE": 159.0188, "ARG_OF_PERICENTER": 113.927, "MEAN_ANOMALY": 37.1891, "EPHEMERIS_TYPE": 0, "CLASSIFICATION_TYPE": "U", "NORAD_CAT_ID": 30090, "ELEMENT_SET_NO": 999, "REV_AT_EPOCH": 98259, "BSTAR": 0.00049498, "MEAN_MOTION_DOT": 1.226e-05, "MEAN_MOTION_DDOT": 0}, "tle": {"line1": "1 30090U 99025QT  25345.98942500  .00001226  00000+0  49498-3 0  9990", "line2": "2 30090  99.4090 159.0188 0058160 113.9270  37.1891 14.29027253982597"}}, "geometry": {"type": "Point", "coordinates": [-20.50814331544904, -0.3702746549528544]}}, {"type": "Feature", "properties": {"norad_id": 30092, "name": "FENGYUN 1C DEB", "group": "fengyun-1c-debris", "lat": 50.01389318610121, "lon": -3.473012192336324, "alt_km": 787.75752844209, "timestamp": "2025-12-12T11:38:31.685729+00:00", "meta": {"OBJECT_NAME": "FENGYUN 1C DEB", "OBJECT_ID": "1999-025QV", "EPOCH": "2025-12-12T01:36:31.747104", "MEAN_MOTION": 14.3913527, "ECCENTRICITY": 0.0082605, "INCLINATION": 98.9228, "RA_OF_ASC_NODE": 165.2956, "ARG_OF_PERICENTER": 252.4296, "MEAN_ANOMALY": 232.7845, "EPHEMERIS_TYPE": 0, "CLASSIFICATION_TYPE": "U", "NORAD_CAT_ID": 30092, "ELEMENT_SET_NO": 999, "REV_AT_EPOCH": 98739, "BSTAR": 0.0009095, "MEAN_MOTION_DOT": 2.88e-05, "MEAN_MOTION_DDOT": 0}, "tle": {"line1": "1 30092U 99025QV  25346.06703411  .00002880  00000+0  90950-3 0  9994", "line2": "2 30092  98.9228 165.2956 0082605 252.4296 232.7845 14.39135270987391"}}, "geometry": {"type": "Point", "coordinates": [-3.473012192336324, 50.01389318610121]}}, {"type": "Feature", "properties": {"norad_id": 30093, "name": "FENGYUN 1C DEB", "group": "fengyun-1c-debris", "lat": -20.641497127326524, "lon": -135.58263932542488, "alt_km": 701.50258562415, "timestamp": "2025-12-12T11:38:31.685739+00:00", "meta": {"OBJECT_NAME": "FENGYUN 1C DEB", "OBJECT_ID": "1999-025QW", "EPOCH": "2025-12-12T02:29:12.996960", "MEAN_MOTION": 14.43684461, "ECCENTRICITY": 0.007022, "INCLINATION": 98.8675, "RA_OF_ASC_NODE": 220.6487, "ARG_OF_PERICENTER": 339.5491, "MEAN_ANOMALY": 178.2052, "EPHEMERIS_TYPE": 0, "CLASSIFICATION_TYPE": "U", "NORAD_CAT_ID": 30093, "ELEMENT_SET_NO": 999, "REV_AT_EPOCH": 98794, "BSTAR": 0.0014588, "MEAN_MOTION_DOT": 5.057e-05, "MEAN_MOTION_DDOT": 0}, "tle": {"line1": "1 30093U 99025QW  25346.10362265  .00005057  00000+0  14588-2 0  9999", "line2": "2 30093  98.8675 220.6487 0070220 339.5491 178.2052 14.43684461987947"}}, "geometry": {"type": "Point", "coordinates": [-135.58263932542488, -20.641497127326524]}}, {"type": "Feature", "properties": {"norad_id": 30095, "name": "FENGYUN 1C DEB", "group": "fengyun-1c-debris", "lat": 62.87459471246093, "lon": -110.91311323086688, "alt_km": 617.4238729172521, "timestamp": "2025-12-12T11:38:31.685750+00:00", "meta": {"OBJECT_NAME": "FENGYUN 1C DEB", "OBJECT_ID": "1999-025QY", "EPOCH": "2025-12-11T17:31:56.635968", "MEAN_MOTION": 14.81882283, "ECCENTRICITY": 0.0166069, "INCLINATION": 99.2191, "RA_OF_ASC_NODE": 266.7028, "ARG_OF_PERICENTER": 335.6608, "MEAN_ANOMALY": 23.6821, "EPHEMERIS_TYPE": 0, "CLASSIFICATION_TYPE": "U", "NORAD_CAT_ID": 30095, "ELEMENT_SET_NO": 999, "REV_AT_EPOCH": 99320, "BSTAR": 0.0035030141, "MEAN_MOTION_DOT": 0.0003532, "MEAN_MOTION_DDOT": 0}, "tle": {"line1": "1 30095U 99025QY  25345.73051662  .00035320  00000+0  35030-2 0  9996", "line2": "2 30095  99.2191 266.7028 0166069 335.6608  23.6821 14.81882283993200"}}, "geometry": {"type": "Point", "coordinates": [-110.91311323086688, 62.87459471246093]}}]}